#aV2015 12 29  0  0  0.00000000     288 DD+AD WGS84 FIT  NGA
## 1877 172800.00000000   300.00000000 57385 0.0000000000000
+   31     1  2  3  5  6  7  8  9 10 11 12 13 14 15 16 17 18
+         19 20 21 22 23 24 25 26 27 28 29 30 31 32  0  0  0
+          0  0  0  0  0  0  0  0  0  0  0  0  0  0  0  0  0
+          0  0  0  0  0  0  0  0  0  0  0  0  0  0  0  0  0
+          0  0  0  0  0  0  0  0  0  0  0  0  0  0  0  0  0
++         2  2  2  2  2  2  2  2  2  2  2  2  2  2  2  2  2
++         2  2  2  2  2  2  2  2  2  2  2  2  2  2  0  0  0
++         0  0  0  0  0  0  0  0  0  0  0  0  0  0  0  0  0
++         0  0  0  0  0  0  0  0  0  0  0  0  0  0  0  0  0
++         0  0  0  0  0  0  0  0  0  0  0  0  0  0  0  0  0
%c cc cc ccc ccc cccc cccc cccc cccc ccccc ccccc ccccc ccccc
%c cc cc ccc ccc cccc cccc cccc cccc ccccc ccccc ccccc ccccc
%f  0.0000000  0.000000000  0.00000000000  0.000000000000000
%f  0.0000000  0.000000000  0.00000000000  0.000000000000000
%i    0    0    0    0      0      0      0      0         0
%i    0    0    0    0      0      0      0      0         0
/*      NGA, ST. LOUIS,MO.                                  
/*   EPHEMERIS COMPUTED FROM 2 DAYS OF DATA                 
/*   EPOCHA v2.4 SMOOTHER                                   
/*   G1762 IERS2010 SATAF SATAPC                            
*  2015 12 29  9 40  0.00000000
P  1  18352.684826   6510.389092  18081.977608      7.803544                    
V  1  10386.885679  20599.437619 -17679.342864      0.009432                    
P  2 -13934.902833 -22881.418769    890.959738    598.582624                    
V  2   2890.036961  -1092.679411  31041.026232      0.004977                    
P  3  17592.335613  -3144.669174  19652.389872     -4.308108                    
V  3 -11161.598032  22358.741381  13551.548401     -0.051475                    
P  5  -7563.948063 -15965.734190 -19845.990026   -160.478633                    
V  5  13311.366039 -21388.840690  12370.030164      0.036111                    
P  6  -3963.036194 -23248.436661  12227.843945    120.212780                    
V  6   9881.794318  12173.076362  26341.900580      0.063493                    
P  7  11641.895430  -9691.948869 -21658.733282    475.738743                    
V  7  14009.706719  24041.659932  -3587.164587     -0.013454                    
P  8  23999.356993   6211.325083  -9482.831306    -18.003363                    
V  8 -12073.764896   2726.685004 -28601.456339     -0.014273                    
P  9  22020.917658  -8834.303009 -11962.186401     38.668410                    
V  9  15212.418062   2207.637389  26399.404965      0.079836                    
P 10 -10072.867842  24185.218396   4223.242304     47.567230                    
V 10  -5109.355602   3295.443422 -31139.905735      0.027092                    
P 11  22981.805159   7953.048110  10200.319130   -624.370821                    
V 11   8132.391419  12030.987445 -26229.226029     -0.020525                    
P 12 -16077.061268   -310.112399  20983.278109    356.962583                    
V 12  13708.352782 -23119.395691  10318.996241      0.028422                    
P 13 -17410.417112 -12538.630667 -15730.225458   -174.718707                    
V 13  19812.488777    266.605712 -22424.765981     -0.026265                    
P 14  -7599.320457  14283.110055  21287.976582     12.515024                    
V 14 -26366.375551  -2418.405169  -8027.110207     -0.023441                    
P 15 -25613.481476  -3484.829423  -6963.581695   -289.575694                    
V 15   8412.263465  -3793.563271 -29194.506372     -0.018944                    
P 16   5416.225072  16104.617181 -20385.089095    -53.088884                    
V 16 -14882.948945  21019.779236  13068.723650      0.033774                    
P 17   8001.816722 -14162.630910  21274.588539   -197.705254                    
V 17  26238.630150   1599.182088  -9140.340706     -0.008582                    
P 18 -15845.494017  20035.266969  -6222.246296    467.561673                    
V 18    400.807591  -9576.924902 -29717.533274      0.038584                    
P 19  13731.434914 -12030.916019  19238.666237   -524.096665                    
V 19  24542.605032   3035.782680 -15022.545192     -0.002467                    
P 20 -17211.308857    681.546606 -20392.368708    381.840258                    
V 20   9760.556633 -23756.012839  -9039.076567      0.027617                    
P 21  -8832.651401  13835.263836 -20103.825589   -502.241233                    
V 21 -15535.217315 -22523.516028  -8677.518212     -0.021288                    
P 22  -4154.866128  24245.839215  10071.888855    416.809804                    
V 22  -9055.633792   9455.213853 -27261.040199     -0.033101                    
P 23  26784.983544   -637.413253   -481.184518   -152.187688                    
V 23    837.464072   2877.557375  31152.823837     -0.019414                    
P 24 -19135.799334  -9016.701337  16130.122243     -9.963434                    
V 24  -9144.432081 -18466.809333 -20935.799364     -0.005247                    
P 25 -18166.134524  13373.590068  13773.166236    -90.597266                    
V 25   7013.021856 -16359.835890  25127.530065     -0.062114                    
P 26  -1941.746037  22830.721479 -13402.969485   -187.132709                    
V 26 -10236.114178  13809.778809  25021.735722     -0.171073                    
P 27  16204.128260  11773.235813 -17534.711431     48.570856                    
V 27 -22121.322037   1774.306445 -19140.664369      0.033889                    
P 28  11639.818766 -23439.285030   4956.519041    491.598862                    
V 28   4563.333676  -3546.791964 -31606.709279      0.025423                    
P 29 -24056.075844   5547.098721  -9729.069580    649.959647                    
V 29 -12266.655809  -2666.043669  28795.314601      0.013222                    
P 30   4187.772155 -19436.567749 -17573.952876     77.375470                    
V 30  11652.143153  19171.785299 -18506.889108      0.049979                    
P 31   4426.259770  23622.383960  11017.864750    289.309067                    
V 31  -8749.650865 -11070.088982  27899.219948     -0.015984                    
P 32  12069.688572   9791.287177  21477.871895     63.193721                    
V 32 -15258.171102  22865.429880  -1311.841068      0.122451                    
EOF
